[{"OBJECT_NAME":"TIANHUI 5C","OBJECT_ID":"2024-126A","EPOCH":"2026-03-09T13:08:56.446656","MEAN_MOTION":14.87585548,"ECCENTRICITY":0.0001564,"INCLINATION":97.8217,"RA_OF_ASC_NODE":77.5195,"ARG_OF_PERICENTER":89.5456,"MEAN_ANOMALY":270.594,"EPHEMERIS_TYPE":0,"CLASSIFICATION_TYPE":"U","NORAD_CAT_ID":60211,"ELEMENT_SET_NO":999,"REV_AT_EPOCH":9107,"BSTAR":7.97e-5,"MEAN_MOTION_DOT":6.7e-6,"MEAN_MOTION_DDOT":0},{"OBJECT_NAME":"FENGYUN 1C DEB","OBJECT_ID":"1999-025DYB","EPOCH":"2026-03-04T22:10:33.898944","MEAN_MOTION":14.66370182,"ECCENTRICITY":0.01040693,"INCLINATION":99.4227,"RA_OF_ASC_NODE":231.8194,"ARG_OF_PERICENTER":177.2125,"MEAN_ANOMALY":182.9676,"EPHEMERIS_TYPE":0,"CLASSIFICATION_TYPE":"U","NORAD_CAT_ID":36657,"ELEMENT_SET_NO":999,"REV_AT_EPOCH":67460,"BSTAR":0.0012550322,"MEAN_MOTION_DOT":7.456e-5,"MEAN_MOTION_DDOT":0}]
